STARLINK-11092 [DTC]    
1 59710U 24088C   24145.16667824 -.00458778  00000+0 -20976-2 0  9996
2 59710  53.1643 315.0602 0000877  35.6803 262.0263 15.84137459  3337
STARLINK-11082 [DTC]    
1 59711U 24088D   24145.25001157 -.00010768  00000+0 -44456-4 0  9992
2 59711  53.1642 314.6162 0000777  63.8714   0.9339 15.83771355  3348
STARLINK-11108 [DTC]    
1 59712U 24088E   24144.83335648 -.00141807  00000+0 -63089-3 0  9992
2 59712  53.1646 316.6910 0001270  48.9050 170.5141 15.83883030  3284
STARLINK-11100 [DTC]    
1 59713U 24088F   24145.16667824  .00084068  00000+0  37271-3 0  9991
2 59713  53.1640 314.9874 0002469 141.6614 191.1988 15.83704080  3327
STARLINK-11094 [DTC]    
1 59714U 24088G   24145.16667824 -.00017425  00000+0 -73883-4 0  9997
2 59714  53.1640 314.9631 0001251  89.7711 254.7622 15.83801071  3281
STARLINK-11101 [DTC]    
1 59715U 24088H   24144.83335648 -.00544577  00000+0 -23911-2 0  9995
2 59715  53.1641 316.5999 0000994  65.4609 197.9836 15.85181888  3282
STARLINK-11099 [DTC]    
1 59716U 24088J   24144.83335648 -.00564732  00000+0 -25477-2 0  9990
2 59716  53.1643 316.6205 0000682  60.1822 193.3460 15.84671503  3289
STARLINK-11084 [DTC]    
1 59717U 24088K   24144.83335648 -.00525388  00000+0 -22525-2 0  9996
2 59717  53.1640 316.5803 0000610  68.3195 204.4553 15.85629174  3289
STARLINK-11103 [DTC]    
1 59718U 24088L   24144.83335648 -.00505311  00000+0 -21155-2 0  9999
2 59718  53.1639 316.5625 0000758  55.3470 225.9768 15.86068238  3280
STARLINK-11096 [DTC]    
1 59719U 24088M   24144.83335648 -.00488506  00000+0 -20035-2 0  9992
2 59719  53.1637 316.5458 0000253  81.3714 208.2034 15.86450825  3280
STARLINK-11095 [DTC]    
1 59720U 24088N   24145.16667824 -.00525826  00000+0 -21585-2 0  9993
2 59720  53.1634 314.8435 0000632  59.3498 342.8256 15.86517828  3323
STARLINK-31834          
1 59721U 24088P   24144.83335648 -.00961833  00000+0 -67799-2 0  9992
2 59721  53.1637 316.8949 0001271  63.5607  55.7124 15.76035998  3133
STARLINK-31843          
1 59722U 24088Q   24145.16667824 -.01038783  00000+0 -75040-2 0  9992
2 59722  53.1634 315.2312 0000924  70.2950 143.0852 15.75266508  3173
STARLINK-31766          
1 59723U 24088R   24144.83335648 -.00999818  00000+0 -69987-2 0  9999
2 59723  53.1637 316.8852 0001283  69.2893  54.6596 15.75884791  3134
STARLINK-31836          
1 59724U 24088S   24144.83335648 -.01024241  00000+0 -72463-2 0  9993
2 59724  53.1637 316.8754 0000914  64.9758  63.7023 15.75704696  3230
STARLINK-31820          
1 59725U 24088T   24144.83335648 -.01031776  00000+0 -73209-2 0  9994
2 59725  53.1637 316.8713 0001263  69.9956  60.8424 15.75653352  3133
STARLINK-31642          
1 59726U 24088U   24144.83335648 -.01011487  00000+0 -71221-2 0  9994
2 59726  53.1639 316.8808 0001288  62.3917  64.0024 15.75779220  3137
STARLINK-31827          
1 59727U 24088V   24144.83335648 -.01034873  00000+0 -73492-2 0  9991
2 59727  53.1639 316.8671 0001252  65.2388  67.5805 15.75641226  3343
SHIYAN 23 (SY-23)       
1 59728U 24089A   24144.85026888  .00001845  00000+0  19565-3 0  9990
2 59728  97.7646 151.9702 0006782 198.6386 161.4585 14.90276538  1759
CZ-4C R/B               
1 59729U 24089B   24144.85855414  .00011819  00000+0  55872-3 0  9999
2 59729  97.7595 152.4243 0104509 357.3600   2.7065 15.14754560  1784
STARLINK-31472          
1 59730U 24090A   24144.83335648 -.00829009  00000+0 -51452-2 0  9992
2 59730  43.0028 315.1444 0001527 281.3433  68.3003 15.78273885  2853
STARLINK-31817          
1 59731U 24090B   24145.25001157 -.00861752  00000+0 -55453-2 0  9991
2 59731  43.0030 312.5980 0001666 279.3387 281.8924 15.77561233  2986
STARLINK-31841          
1 59732U 24090C   24145.25001157 -.00861745  00000+0 -55456-2 0  9997
2 59732  43.0029 312.5928 0001430 277.5330 285.7646 15.77562068  2974
STARLINK-31833          
1 59733U 24090D   24145.25001157 -.00873014  00000+0 -56338-2 0  9990
2 59733  43.0029 312.5868 0001513 280.8083 284.9096 15.77529647  2912
STARLINK-31849          
1 59734U 24090E   24145.25001157 -.00882913  00000+0 -57090-2 0  9995
2 59734  43.0029 312.5810 0001550 278.2103 289.7770 15.77511790  2984
STARLINK-31661          
1 59735U 24090F   24145.25001157 -.00892950  00000+0 -57854-2 0  9996
2 59735  43.0029 312.5753 0001664 278.7795 291.4814 15.77493497  2925
STARLINK-31707          
1 59736U 24090G   24145.25001157 -.00900850  00000+0 -58480-2 0  9992
2 59736  43.0029 312.5696 0001684 278.2579 294.2916 15.77471228  2987
STARLINK-31821          
1 59737U 24090H   24144.83335648 -.00878402  00000+0 -54935-2 0  9999
2 59737  43.0025 315.1047 0001369 283.9362  81.2329 15.78237834  2858
STARLINK-31819          
1 59738U 24090J   24145.25001157 -.00912147  00000+0 -59345-2 0  9997
2 59738  43.0029 312.5581 0001634 276.2522 300.6179 15.77452907  2923
STARLINK-31726          
1 59739U 24090K   24145.25001157 -.00921944  00000+0 -60134-2 0  9991
2 59739  43.0028 312.5524 0001633 276.8278 302.3828 15.77423372  2972
STARLINK-31759          
1 59740U 24090L   24145.25001157 -.00927167  00000+0 -60586-2 0  9997
2 59740  43.0029 312.5466 0001489 275.6900 305.8037 15.77398173  2978
STARLINK-31818          
1 59741U 24090M   24144.83335648 -.00907981  00000+0 -57037-2 0  9995
2 59741  43.0023 315.0825 0001281 278.4618  95.4802 15.78219804  2894
STARLINK-31816          
1 59742U 24090N   24144.83335648 -.01018021  00000+0 -54786-2 0  9993
2 59742  43.0019 314.7504 0001285 284.8055 220.6925 15.81847271  2897
STARLINK-31809          
1 59743U 24090P   24145.16667824 -.00975683  00000+0 -63673-2 0  9995
2 59743  43.0026 313.0373 0001713 282.1388 192.0117 15.77556501  2857
STARLINK-31779          
1 59744U 24090Q   24145.16667824 -.00991653  00000+0 -64969-2 0  9990
2 59744  43.0022 313.0259 0001612 281.6070 197.0504 15.77514629  2947
STARLINK-31805          
1 59745U 24090R   24145.25001157 -.00959502  00000+0 -63084-2 0  9996
2 59745  43.0024 312.5240 0001658 277.1612 313.0455 15.77348486  2970
STARLINK-31681          
1 59746U 24090S   24145.16667824 -.01015168  00000+0 -65502-2 0  9995
2 59746  43.0023 313.0203 0001641 282.8496 197.9673 15.77504618  2961
STARLINK-31636          
1 59747U 24090T   24145.16667824 -.01034043  00000+0 -67028-2 0  9994
2 59747  43.0022 313.0090 0001614 282.0879 203.3389 15.77445642  2969
STARLINK-31640          
1 59748U 24090U   24145.16667824 -.01025199  00000+0 -66313-2 0  9993
2 59748  43.0022 313.0145 0001678 282.4000 200.7495 15.77472242  2966
STARLINK-31677          
1 59749U 24090V   24145.16667824 -.01037905  00000+0 -67385-2 0  9992
2 59749  43.0021 313.0032 0001663 285.4665 202.2147 15.77418836  2965
STARLINK-31783          
1 59750U 24090W   24144.83335648 -.00898700  00000+0 -56969-2 0  9996
2 59750  43.0020 315.0306 0001999 263.0433 131.2977 15.77987960  2915
STARLINK-31808          
1 59751U 24090X   24145.16667824 -.00937300  00000+0 -61575-2 0  9997
2 59751  43.0022 312.9923 0001429 289.0469 203.0293 15.77308190  2960
STARLINK-31822          
1 59752U 24090Y   24145.16667824 -.01064275  00000+0 -69365-2 0  9996
2 59752  43.0023 312.9872 0001741 275.2385 218.8557 15.77392431  2964
STARLINK-11125 [DTC]    
1 59753U 24091A   24145.25001157  .00127804  00000+0  55959-3 0  9999
2 59753  53.1620 194.8005 0001976  66.5795 296.8835 15.83799944  2716
STARLINK-11118 [DTC]    
1 59754U 24091B   24144.83335648 -.00032579  00000+0 -14117-3 0  9995
2 59754  53.1616 196.8732 0000628  93.4379  64.6952 15.83808419  2653
STARLINK-11132 [DTC]    
1 59755U 24091C   24145.25001157  .00019249  00000+0  88178-4 0  9994
2 59755  53.1614 194.7527 0000994  88.7686 297.8431 15.83777570  2717
STARLINK-11131 [DTC]    
1 59756U 24091D   24144.83335648 -.00690853  00000+0 -31040-2 0  9995
2 59756  53.1614 196.8300 0001145  71.5477 107.4988 15.85051918  2656
STARLINK-11114 [DTC]    
1 59757U 24091E   24145.25001157 -.00656797  00000+0 -29389-2 0  9990
2 59757  53.1613 194.7096 0000801  90.6566 316.7472 15.85058414  2655
STARLINK-11105 [DTC]    
1 59758U 24091F   24145.25001157 -.00633684  00000+0 -27569-2 0  9999
2 59758  53.1612 194.6908 0000855  85.9038 330.6286 15.85581640  2656
STARLINK-11097 [DTC]    
1 59759U 24091G   24145.25001157 -.00617684  00000+0 -26244-2 0  9991
2 59759  53.1611 194.6726 0000875  97.8069 327.4562 15.86028751  2710
STARLINK-11098 [DTC]    
1 59760U 24091H   24144.83335648 -.00609975  00000+0 -24725-2 0  9997
2 59760  53.1611 196.7620 0000895  64.1871 147.6679 15.86966973  2592
STARLINK-11117 [DTC]    
1 59761U 24091J   24145.25001157 -.00586908  00000+0 -23864-2 0  9993
2 59761  53.1611 194.6398 0000879  99.8452 341.2506 15.86851090  2712
STARLINK-11110 [DTC]    
1 59762U 24091K   24144.83335648 -.00584389  00000+0 -22766-2 0  9993
2 59762  53.1609 196.7332 0000931  60.5348 165.1532 15.87707485  2653
STARLINK-11104 [DTC]    
1 59763U 24091L   24144.83335648 -.00574881  00000+0 -22013-2 0  9995
2 59763  53.1609 196.7190 0000742  63.7487 168.7623 15.88032051  2656
STARLINK-11111 [DTC]    
1 59764U 24091M   24145.16667824 -.00518699  00000+0 -19541-2 0  9994
2 59764  53.1608 195.0012 0000741  99.7618 253.4629 15.88229682  2707
STARLINK-11106 [DTC]    
1 59765U 24091N   24145.16667824 -.00517934  00000+0 -19755-2 0  9993
2 59765  53.1610 195.0175 0000753  89.7755 255.5011 15.87980772  2706
STARLINK-31739          
1 59766U 24091P   24145.16667824 -.00817873  00000+0 -36008-2 0  9999
2 59766  53.1605 195.0041 0000563  88.2345 263.0782 15.85773390  2636
STARLINK-31828          
1 59767U 24091Q   24145.16667824 -.00784742  00000+0 -34672-2 0  9993
2 59767  53.1603 195.0255 0000717  97.2569 243.8050 15.85621479  2444
